NORAD_CAT_ID,OBJECT_NAME,OBJECT_TYPE,EPOCH,MEAN_MOTION,ECCENTRICITY,INCLINATION,RA_OF_ASC_NODE,ARG_OF_PERICENTER,MEAN_ANOMALY,BSTAR,MEAN_MOTION_DOT,MEAN_MOTION_DDOT,TLE_LINE0,TLE_LINE1,TLE_LINE2,SEMIMAJOR_AXIS,PERIOD,APOGEE,PERIGEE,DECAYED
52680.0,STARLINK-3774,PAYLOAD,2024-07-28 12:49:42,15.0884423,0.0001604,53.2173,268.7142,96.3316,263.7858,9.8944e-06,-1.31e-06,0.0,0 STARLINK-3774,1 52680U 22053AA  24210.53452031 -.00000131  00000-0  98944-5 0  9990,2 52680  53.2173 268.7142 0001604  96.3316 263.7858 15.08844230121809,6917.867,95.437,540.842,538.623,0.0
52680.0,STARLINK-3774,PAYLOAD,2024-07-29 12:40:30,15.08837919,0.0001726,53.2172,264.2485,90.0882,270.0307,9.2153e-05,1.179e-05,0.0,0 STARLINK-3774,1 52680U 22053AA  24211.52812562  .00001179  00000-0  92153-4 0  9996,2 52680  53.2172 264.2485 0001726  90.0882 270.0307 15.08837919121955,6917.887,95.438,540.946,538.558,0.0
52680.0,STARLINK-3774,PAYLOAD,2024-07-29 20:37:25,15.08836269,0.0001782,53.2176,262.7611,85.9606,274.159,7.432e-05,8.95e-06,0.0,0 STARLINK-3774,1 52680U 22053AA  24211.85932843  .00000895  00000-0  74320-4 0  9997,2 52680  53.2176 262.7611 0001782  85.9606 274.1590 15.08836269122410,6917.892,95.438,540.99,538.524,0.0
52680.0,STARLINK-3774,PAYLOAD,2024-07-30 09:20:30,15.08840971,0.0001731,53.217,260.3815,86.5262,273.5928,7.2109e-05,8.6e-06,0.0,0 STARLINK-3774,1 52680U 22053AA  24212.38924637  .00000860  00000-0  72109-4 0  9993,2 52680  53.2170 260.3815 0001731  86.5262 273.5928 15.08840971122494,6917.877,95.437,540.94,538.545,0.0
52680.0,STARLINK-3774,PAYLOAD,2024-07-30 20:28:12,15.0884097,0.0001814,53.2174,258.3045,86.0326,274.0874,6.8424e-05,8.01e-06,0.0,0 STARLINK-3774,1 52680U 22053AA  24212.85292771  .00000801  00000-0  68424-4 0  9992,2 52680  53.2174 258.3045 0001814  86.0326 274.0874 15.08840970122156,6917.877,95.437,540.997,538.488,0.0
52680.0,STARLINK-3774,PAYLOAD,2024-07-31 12:22:04,15.08837711,0.0001609,53.2159,255.3264,96.7612,263.3563,3.2831e-05,2.34e-06,0.0,0 STARLINK-3774,1 52680U 22053AA  24213.51533031  .00000234  00000-0  32831-4 0  9996,2 52680  53.2159 255.3264 0001609  96.7612 263.3563 15.08837711122668,6917.887,95.438,540.865,538.639,0.0
52680.0,STARLINK-3774,PAYLOAD,2024-07-31 20:19:00,15.08839309,0.0001561,53.2159,253.8405,97.8216,262.2954,5.5904e-05,6.02e-06,0.0,0 STARLINK-3774,1 52680U 22053AA  24213.84652910  .00000602  00000-0  55904-4 0  9995,2 52680  53.2159 253.8405 0001561  97.8216 262.2954 15.08839309122710,6917.883,95.438,540.827,538.668,0.0
52680.0,STARLINK-3774,PAYLOAD,2024-08-01 12:12:50,15.08848094,0.0001575,53.2155,250.8674,98.2691,261.848,0.00011921,1.61e-05,0.0,0 STARLINK-3774,1 52680U 22053AA  24214.50892134  .00001610  00000-0  11921-3 0  9993,2 52680  53.2155 250.8674 0001575  98.2691 261.8480 15.08848094122404,6917.856,95.437,540.81,538.631,0.0
52680.0,STARLINK-3774,PAYLOAD,2024-08-02 08:52:51,15.08843545,0.0001461,53.2158,247.002,96.8795,263.2363,8.7065e-05,1.098e-05,0.0,0 STARLINK-3774,1 52680U 22053AA  24215.37004450  .00001098  00000-0  87065-4 0  9998,2 52680  53.2158 247.0020 0001461  96.8795 263.2363 15.08843545122539,6917.87,95.437,540.745,538.724,0.0
52680.0,STARLINK-3774,PAYLOAD,2024-08-03 08:43:39,15.08832315,0.0001444,53.2159,242.5438,91.7628,268.3529,0.00011864,1.6e-05,0.0,0 STARLINK-3774,1 52680U 22053AA  24216.36365158  .00001600  00000-0  11864-3 0  9995,2 52680  53.2159 242.5438 0001444  91.7628 268.3529 15.08832315122682,6917.904,95.438,540.768,538.77,0.0
52680.0,STARLINK-3774,PAYLOAD,2024-08-03 18:15:58,15.08839688,0.000145,53.2154,240.7587,87.2788,272.837,-4.8514e-05,-1.06e-05,0.0,0 STARLINK-3774,1 52680U 22053AA  24216.76109023 -.00001060  00000-0 -48514-4 0  9991,2 52680  53.2154 240.7587 0001450  87.2788 272.8370 15.08839688123153,6917.881,95.438,540.749,538.743,0.0
52680.0,STARLINK-3774,PAYLOAD,2024-08-04 08:34:26,15.08837344,0.0001454,53.216,238.0838,89.3442,270.7717,1.6303e-05,-2.9e-07,0.0,0 STARLINK-3774,1 52680U 22053AA  24217.35725108 -.00000029  00000-0  16303-4 0  9999,2 52680  53.2160 238.0838 0001454  89.3442 270.7717 15.08837344123242,6917.889,95.438,540.759,538.748,0.0
52680.0,STARLINK-3774,PAYLOAD,2024-08-04 18:06:45,15.08838504,0.000144,53.2161,236.2992,88.1463,271.9694,5.3883e-05,5.7e-06,0.0,0 STARLINK-3774,1 52680U 22053AA  24217.75468989  .00000570  00000-0  53883-4 0  9998,2 52680  53.2161 236.2992 0001440  88.1463 271.9694 15.08838504122895,6917.885,95.438,540.746,538.754,0.0
52680.0,STARLINK-3774,PAYLOAD,2024-08-05 17:57:32,15.08839204,0.000136,53.2155,231.8388,87.9144,272.2004,7.4053e-05,8.91e-06,0.0,0 STARLINK-3774,1 52680U 22053AA  24218.74828890  .00000891  00000-0  74053-4 0  9997,2 52680  53.2155 231.8388 0001360  87.9144 272.2004 15.08839204123452,6917.883,95.438,540.689,538.807,0.0
52680.0,STARLINK-3774,PAYLOAD,2024-08-06 05:05:15,15.08825249,0.0001442,53.2164,229.7572,88.0533,272.0624,-3.5488e-05,-8.52e-06,0.0,0 STARLINK-3774,1 52680U 22053AA  24219.21198342 -.00000852  00000-0 -35488-4 0  9990,2 52680  53.2164 229.7572 0001442  88.0533 272.0624 15.08825249123111,6917.925,95.438,540.788,538.793,0.0
52680.0,STARLINK-3774,PAYLOAD,2024-08-06 09:51:24,15.08827946,0.000169,53.2173,228.8631,86.3748,273.7438,-2.7814e-05,-7.31e-06,0.0,0 STARLINK-3774,1 52680U 22053AA  24219.41070305 -.00000731  00000-0 -27814-4 0  9990,2 52680  53.2173 228.8631 0001690  86.3748 273.7438 15.08827946123556,6917.917,95.438,540.951,538.613,0.0
52680.0,STARLINK-3774,PAYLOAD,2024-08-07 06:31:24,15.08843703,0.0001366,53.2156,224.9978,87.5025,272.6124,1.4543e-05,-5.6e-07,0.0,0 STARLINK-3774,1 52680U 22053AA  24220.27181318 -.00000056  00000-0  14543-4 0  9997,2 52680  53.2156 224.9978 0001366  87.5025 272.6124 15.08843703123277,6917.869,95.437,540.679,538.789,0.0
52680.0,STARLINK-3774,PAYLOAD,2024-08-08 09:32:57,15.08842287,0.0001422,53.2157,219.9409,86.8045,273.311,0.00015511,2.182e-05,0.0,0 STARLINK-3774,1 52680U 22053AA  24221.39789226  .00002182  00000-0  15511-3 0  9999,2 52680  53.2157 219.9409 0001422  86.8045 273.3110 15.08842287123851,6917.873,95.437,540.722,538.755,0.0
52680.0,STARLINK-3774,PAYLOAD,2024-08-09 09:23:44,15.08850429,0.0001594,53.2166,215.4792,103.9689,256.148,0.0001147,1.538e-05,0.0,0 STARLINK-3774,1 52680U 22053AA  24222.39148578  .00001538  00000-0  11470-3 0  9993,2 52680  53.2166 215.4792 0001594 103.9689 256.1480 15.08850429124006,6917.849,95.437,540.816,538.611,0.0
52680.0,STARLINK-3774,PAYLOAD,2024-08-10 04:28:22,15.08839646,0.0001669,53.2165,211.9087,108.2588,251.8586,1.7538e-05,-9e-08,0.0,0 STARLINK-3774,1 52680U 22053AA  24223.18637326 -.00000009  00000-0  17538-4 0  9990,2 52680  53.2165 211.9087 0001669 108.2588 251.8586 15.08839646123716,6917.881,95.438,540.901,538.592,0.0
52680.0,STARLINK-3774,PAYLOAD,2024-08-11 05:54:32,15.088529,0.0001444,53.2164,207.1595,99.4915,260.624,6.1375e-05,6.89e-06,0.0,0 STARLINK-3774,1 52680U 22053AA  24224.24620435  .00000689  00000-0  61375-4 0  9992,2 52680  53.2164 207.1595 0001444  99.4915 260.6240 15.08852900123872,6917.841,95.437,540.705,538.707,0.0
52680.0,STARLINK-3774,PAYLOAD,2024-08-11 21:48:23,15.08839565,0.0001431,53.2174,204.1875,94.4222,265.6934,0.00011506,1.544e-05,0.0,0 STARLINK-3774,1 52680U 22053AA  24224.90860946  .00001544  00000-0  11506-3 0  9999,2 52680  53.2174 204.1875 0001431  94.4222 265.6934 15.08839565124387,6917.882,95.438,540.737,538.757,0.0
52680.0,STARLINK-3774,PAYLOAD,2024-08-12 04:09:57,15.08833641,0.0001836,53.2177,202.9942,100.7959,259.324,8.1474e-06,-1.58e-06,0.0,0 STARLINK-3774,1 52680U 22053AA  24225.17357742 -.00000158  00000-0  81474-5 0  9998,2 52680  53.2177 202.9942 0001836 100.7959 259.3240 15.08833641124017,6917.9,95.438,541.035,538.495,0.0
52680.0,STARLINK-3774,PAYLOAD,2024-08-12 07:20:42,15.0884592,0.0001355,53.2165,202.3987,87.099,273.0158,0.00012693,1.733e-05,0.0,0 STARLINK-3774,1 52680U 22053AA  24225.30604616  .00001733  00000-0  12693-3 0  9992,2 52680  53.2165 202.3987 0001355  87.0990 273.0158 15.08845920124031,6917.862,95.437,540.665,538.79,0.0
52680.0,STARLINK-3774,PAYLOAD,2024-08-12 15:17:38,15.08842182,0.0001242,53.216,200.9111,97.8111,262.3022,7.9237e-05,9.73e-06,0.0,0 STARLINK-3774,1 52680U 22053AA  24225.63724889  .00000973  00000-0  79237-4 0  9996,2 52680  53.2160 200.9111 0001242  97.8111 262.3022 15.08842182124081,6917.874,95.437,540.598,538.88,0.0
52680.0,STARLINK-3774,PAYLOAD,2024-08-13 07:11:29,15.08853393,0.0001359,53.2165,197.9391,89.9627,270.1521,4.2191e-05,3.84e-06,0.0,0 STARLINK-3774,1 52680U 22053AA  24226.29964157  .00000384  00000-0  42191-4 0  9998,2 52680  53.2165 197.9391 0001359  89.9627 270.1521 15.08853393124182,6917.839,95.437,540.645,538.764,0.0
52680.0,STARLINK-3774,PAYLOAD,2024-08-14 03:51:31,15.08830534,0.0001334,53.217,194.071,92.1317,267.9828,-0.00011913,-2.183e-05,0.0,0 STARLINK-3774,1 52680U 22053AA  24227.16078653 -.00002183  00000-0 -11913-3 0  9990,2 52680  53.2170 194.0710 0001334  92.1317 267.9828 15.08830534124317,6917.909,95.438,540.697,538.851,0.0
52680.0,STARLINK-3774,PAYLOAD,2024-08-14 14:59:14,15.0882683,0.0001355,53.2174,191.9901,86.5699,273.5448,-8.1145e-05,-1.579e-05,0.0,0 STARLINK-3774,1 52680U 22053AA  24227.62447126 -.00001579  00000-0 -81145-4 0  9999,2 52680  53.2174 191.9901 0001355  86.5699 273.5448 15.08826830124799,6917.921,95.438,540.723,538.848,0.0
52680.0,STARLINK-3774,PAYLOAD,2024-08-15 03:42:18,15.08839658,0.0001288,53.2159,189.6118,95.8642,264.2497,-2.0301e-05,-6.11e-06,0.0,0 STARLINK-3774,1 52680U 22053AA  24228.15438478 -.00000611  00000-0 -20301-4 0  9991,2 52680  53.2159 189.6118 0001288  95.8642 264.2497 15.08839658124469,6917.881,95.438,540.637,538.855,0.0
52680.0,STARLINK-3774,PAYLOAD,2024-08-15 14:50:00,15.08855614,0.0001329,53.2166,187.5297,96.4477,263.6666,-0.0001344,-2.427e-05,0.0,0 STARLINK-3774,1 52680U 22053AA  24228.61805645 -.00002427  00000-0 -13440-3 0  9998,2 52680  53.2166 187.5297 0001329  96.4477 263.6666 15.08855614124945,6917.833,95.437,540.617,538.778,0.0
